start=new Date('2022-08-02T00:00:00.000Z').valueOf();
sats=[{"SITE":"AFETR","GP_ID":"209390466","EPOCH":"2022-08-01T22:00:00.999936","OBJECT_NAME":"STARLINK-3522","ELEMENT_SET_NO":"999","MEAN_MOTION_DDOT":"0.0000000000000","REV_AT_EPOCH":"130","NORAD_CAT_ID":"51725","ECCENTRICITY":"0.00018350","PERIAPSIS":"538.449","FILE":"3527139","TLE_LINE1":"1 51725U 22016M   22213.91667824 -.00037521  00000-0 -23511-2 0  9998","RCS_SIZE":"LARGE","BSTAR":"-0.00235110000000","APOAPSIS":"540.988","SEMIMAJOR_AXIS":"6917.854","OBJECT_TYPE":"PAYLOAD","RA_OF_ASC_NODE":"115.8548","TIME_SYSTEM":"UTC","PERIOD":"95.437","EPHEMERIS_TYPE":"0","COUNTRY_CODE":"US","MEAN_ANOMALY":"254.3588","CLASSIFICATION_TYPE":"U","LAUNCH_DATE":"2022-02-21","REF_FRAME":"TEME","MEAN_MOTION":"15.08848718","DECAY_DATE":null,"TLE_LINE2":"2 51725  53.2149 115.8548 0001835  62.4396 254.3588 15.08848718  1304","ARG_OF_PERICENTER":"62.4396","INCLINATION":"53.2149","MEAN_MOTION_DOT":"-0.00037521","OBJECT_ID":"2022-016M","CENTER_NAME":"EARTH","MEAN_ELEMENT_THEORY":"SGP4"},{"REV_AT_EPOCH":"130","PERIAPSIS":"538.300","NORAD_CAT_ID":"51726","ECCENTRICITY":"0.00020480","EPOCH":"2022-08-01T22:00:00.999936","OBJECT_NAME":"STARLINK-3527","GP_ID":"209391715","SITE":"AFETR","MEAN_MOTION_DDOT":"0.0000000000000","ELEMENT_SET_NO":"999","APOAPSIS":"541.134","SEMIMAJOR_AXIS":"6917.852","RCS_SIZE":"LARGE","BSTAR":"-0.00147450000000","TLE_LINE1":"1 51726U 22016N   22213.91667824 -.00023685  00000-0 -14745-2 0  9994","FILE":"3527139","CLASSIFICATION_TYPE":"U","COUNTRY_CODE":"US","MEAN_ANOMALY":"96.7660","LAUNCH_DATE":"2022-02-21","REF_FRAME":"TEME","DECAY_DATE":null,"MEAN_MOTION":"15.08849213","PERIOD":"95.437","TIME_SYSTEM":"UTC","OBJECT_TYPE":"PAYLOAD","RA_OF_ASC_NODE":"105.8462","EPHEMERIS_TYPE":"0","MEAN_MOTION_DOT":"-0.00023685","INCLINATION":"53.2170","OBJECT_ID":"2022-016N","CENTER_NAME":"EARTH","MEAN_ELEMENT_THEORY":"SGP4","ARG_OF_PERICENTER":"55.0085","TLE_LINE2":"2 51726  53.2170 105.8462 0002048  55.0085  96.7660 15.08849213  1303"},{"MEAN_MOTION_DOT":"-0.00026832","INCLINATION":"53.2146","OBJECT_ID":"2022-016P","MEAN_ELEMENT_THEORY":"SGP4","CENTER_NAME":"EARTH","ARG_OF_PERICENTER":"61.8125","TLE_LINE2":"2 51727  53.2146 115.8508 0002153  61.8125 294.9308 15.08864101  1300","CLASSIFICATION_TYPE":"U","MEAN_ANOMALY":"294.9308","COUNTRY_CODE":"US","LAUNCH_DATE":"2022-02-21","REF_FRAME":"TEME","MEAN_MOTION":"15.08864101","DECAY_DATE":null,"TIME_SYSTEM":"UTC","PERIOD":"95.436","OBJECT_TYPE":"PAYLOAD","RA_OF_ASC_NODE":"115.8508","EPHEMERIS_TYPE":"0","APOAPSIS":"541.161","SEMIMAJOR_AXIS":"6917.807","RCS_SIZE":"LARGE","BSTAR":"-0.00167290000000","FILE":"3527139","TLE_LINE1":"1 51727U 22016P   22213.91667824 -.00026832  00000-0 -16729-2 0  9996","REV_AT_EPOCH":"130","PERIAPSIS":"538.182","NORAD_CAT_ID":"51727","ECCENTRICITY":"0.00021530","OBJECT_NAME":"STARLINK-3532","EPOCH":"2022-08-01T22:00:00.999936","GP_ID":"209391457","SITE":"AFETR","MEAN_MOTION_DDOT":"0.0000000000000","ELEMENT_SET_NO":"999"},{"GP_ID":"209390714","SITE":"AFETR","OBJECT_NAME":"STARLINK-3448","EPOCH":"2022-08-01T22:00:00.999936","ELEMENT_SET_NO":"999","MEAN_MOTION_DDOT":"0.0000000000000","REV_AT_EPOCH":"130","ECCENTRICITY":"0.00019690","NORAD_CAT_ID":"51728","PERIAPSIS":"538.370","FILE":"3527139","TLE_LINE1":"1 51728U 22016Q   22213.91667824 -.00030692  00000-0 -19183-2 0  9993","BSTAR":"-0.00191830000000","RCS_SIZE":"LARGE","SEMIMAJOR_AXIS":"6917.867","APOAPSIS":"541.094","OBJECT_TYPE":"PAYLOAD","RA_OF_ASC_NODE":"105.8434","TIME_SYSTEM":"UTC","PERIOD":"95.437","EPHEMERIS_TYPE":"0","COUNTRY_CODE":"US","MEAN_ANOMALY":"131.3307","CLASSIFICATION_TYPE":"U","DECAY_DATE":null,"MEAN_MOTION":"15.08844283","LAUNCH_DATE":"2022-02-21","REF_FRAME":"TEME","TLE_LINE2":"2 51728  53.2166 105.8434 0001969  60.4642 131.3307 15.08844283  1305","ARG_OF_PERICENTER":"60.4642","INCLINATION":"53.2166","MEAN_MOTION_DOT":"-0.00030692","MEAN_ELEMENT_THEORY":"SGP4","CENTER_NAME":"EARTH","OBJECT_ID":"2022-016Q"},{"REV_AT_EPOCH":"130","PERIAPSIS":"538.360","ECCENTRICITY":"0.00019340","NORAD_CAT_ID":"51729","EPOCH":"2022-08-01T22:00:00.999936","OBJECT_NAME":"STARLINK-3523","SITE":"AFETR","GP_ID":"209390965","ELEMENT_SET_NO":"999","MEAN_MOTION_DDOT":"0.0000000000000","SEMIMAJOR_AXIS":"6917.833","APOAPSIS":"541.036","BSTAR":"-0.00151250000000","RCS_SIZE":"LARGE","TLE_LINE1":"1 51729U 22016R   22213.91667824 -.00024290  00000-0 -15125-2 0  9993","FILE":"3527139","CLASSIFICATION_TYPE":"U","COUNTRY_CODE":"US","MEAN_ANOMALY":"71.4713","MEAN_MOTION":"15.08855463","DECAY_DATE":null,"LAUNCH_DATE":"2022-02-21","REF_FRAME":"TEME","PERIOD":"95.437","TIME_SYSTEM":"UTC","RA_OF_ASC_NODE":"105.8429","OBJECT_TYPE":"PAYLOAD","EPHEMERIS_TYPE":"0","MEAN_MOTION_DOT":"-0.00024290","INCLINATION":"53.2162","CENTER_NAME":"EARTH","MEAN_ELEMENT_THEORY":"SGP4","OBJECT_ID":"2022-016R","ARG_OF_PERICENTER":"60.2672","TLE_LINE2":"2 51729  53.2162 105.8429 0001934  60.2672  71.4713 15.08855463  1306"},{"RCS_SIZE":"LARGE","BSTAR":"-0.00129670000000","TLE_LINE1":"1 51730U 22016S   22213.91667824 -.00020872  00000-0 -12967-2 0  9998","FILE":"3527139","APOAPSIS":"541.117","SEMIMAJOR_AXIS":"6917.851","ELEMENT_SET_NO":"999","MEAN_MOTION_DDOT":"0.0000000000000","OBJECT_NAME":"STARLINK-3530","EPOCH":"2022-08-01T22:00:00.999936","GP_ID":"209391216","SITE":"AFETR","PERIAPSIS":"538.314","NORAD_CAT_ID":"51730","ECCENTRICITY":"0.00020260","REV_AT_EPOCH":"130","ARG_OF_PERICENTER":"59.4026","TLE_LINE2":"2 51730  53.2173 105.8549 0002026  59.4026 172.3639 15.08849733  1300","OBJECT_ID":"2022-016S","MEAN_ELEMENT_THEORY":"SGP4","CENTER_NAME":"EARTH","MEAN_MOTION_DOT":"-0.00020872","INCLINATION":"53.2173","EPHEMERIS_TYPE":"0","TIME_SYSTEM":"UTC","PERIOD":"95.437","RA_OF_ASC_NODE":"105.8549","OBJECT_TYPE":"PAYLOAD","LAUNCH_DATE":"2022-02-21","REF_FRAME":"TEME","MEAN_MOTION":"15.08849733","DECAY_DATE":null,"CLASSIFICATION_TYPE":"U","COUNTRY_CODE":"US","MEAN_ANOMALY":"172.3639"},{"OBJECT_ID":"2022-016T","CENTER_NAME":"EARTH","MEAN_ELEMENT_THEORY":"SGP4","INCLINATION":"53.2167","MEAN_MOTION_DOT":"-0.00023092","TLE_LINE2":"2 51731  53.2167 105.8461 0001883  63.6549 108.1075 15.08845901  1308","ARG_OF_PERICENTER":"63.6549","LAUNCH_DATE":"2022-02-21","REF_FRAME":"TEME","MEAN_MOTION":"15.08845901","DECAY_DATE":null,"MEAN_ANOMALY":"108.1075","COUNTRY_CODE":"US","CLASSIFICATION_TYPE":"U","EPHEMERIS_TYPE":"0","RA_OF_ASC_NODE":"105.8461","OBJECT_TYPE":"PAYLOAD","TIME_SYSTEM":"UTC","PERIOD":"95.437","APOAPSIS":"541.030","SEMIMAJOR_AXIS":"6917.862","FILE":"3527139","TLE_LINE1":"1 51731U 22016T   22213.91667824 -.00023092  00000-0 -14372-2 0  9998","RCS_SIZE":"LARGE","BSTAR":"-0.00143720000000","NORAD_CAT_ID":"51731","ECCENTRICITY":"0.00018830","PERIAPSIS":"538.425","REV_AT_EPOCH":"130","MEAN_MOTION_DDOT":"0.0000000000000","ELEMENT_SET_NO":"999","SITE":"AFETR","GP_ID":"209391957","EPOCH":"2022-08-01T22:00:00.999936","OBJECT_NAME":"STARLINK-3514"},{"ELEMENT_SET_NO":"999","MEAN_MOTION_DDOT":"0.0000000000000","EPOCH":"2022-08-01T22:00:00.999936","OBJECT_NAME":"STARLINK-3518","GP_ID":"209390216","SITE":"AFETR","PERIAPSIS":"538.298","ECCENTRICITY":"0.00019300","NORAD_CAT_ID":"51732","REV_AT_EPOCH":"130","BSTAR":"-0.00419080000000","RCS_SIZE":"LARGE","FILE":"3527139","TLE_LINE1":"1 51732U 22016U   22213.91667824 -.00066438  00000-0 -41908-2 0  9995","SEMIMAJOR_AXIS":"6917.768","APOAPSIS":"540.968","EPHEMERIS_TYPE":"0","TIME_SYSTEM":"UTC","PERIOD":"95.435","OBJECT_TYPE":"PAYLOAD","RA_OF_ASC_NODE":"105.8618","MEAN_MOTION":"15.08876711","DECAY_DATE":null,"LAUNCH_DATE":"2022-02-21","REF_FRAME":"TEME","CLASSIFICATION_TYPE":"U","COUNTRY_CODE":"US","MEAN_ANOMALY":"190.0889","ARG_OF_PERICENTER":"61.6899","TLE_LINE2":"2 51732  53.2186 105.8618 0001930  61.6899 190.0889 15.08876711  1309","MEAN_ELEMENT_THEORY":"SGP4","CENTER_NAME":"EARTH","OBJECT_ID":"2022-016U","MEAN_MOTION_DOT":"-0.00066438","INCLINATION":"53.2186"},{"GP_ID":"209390467","SITE":"AFETR","OBJECT_NAME":"STARLINK-3525","EPOCH":"2022-08-01T22:00:00.999936","ELEMENT_SET_NO":"999","MEAN_MOTION_DDOT":"0.0000000000000","REV_AT_EPOCH":"130","NORAD_CAT_ID":"51733","ECCENTRICITY":"0.00021350","PERIAPSIS":"538.169","TLE_LINE1":"1 51733U 22016V   22213.91667824 -.00065039  00000-0 -41018-2 0  9994","FILE":"3527139","RCS_SIZE":"LARGE","BSTAR":"-0.00410180000000","APOAPSIS":"541.123","SEMIMAJOR_AXIS":"6917.781","OBJECT_TYPE":"PAYLOAD","RA_OF_ASC_NODE":"105.8440","TIME_SYSTEM":"UTC","PERIOD":"95.436","EPHEMERIS_TYPE":"0","COUNTRY_CODE":"US","MEAN_ANOMALY":"153.9535","CLASSIFICATION_TYPE":"U","LAUNCH_DATE":"2022-02-21","REF_FRAME":"TEME","MEAN_MOTION":"15.08872460","DECAY_DATE":null,"TLE_LINE2":"2 51733  53.2170 105.8440 0002135  57.8287 153.9535 15.08872460  1305","ARG_OF_PERICENTER":"57.8287","INCLINATION":"53.2170","MEAN_MOTION_DOT":"-0.00065039","OBJECT_ID":"2022-016V","CENTER_NAME":"EARTH","MEAN_ELEMENT_THEORY":"SGP4"},{"TIME_SYSTEM":"UTC","PERIOD":"95.437","OBJECT_TYPE":"PAYLOAD","RA_OF_ASC_NODE":"105.8493","EPHEMERIS_TYPE":"0","CLASSIFICATION_TYPE":"U","MEAN_ANOMALY":"253.9970","COUNTRY_CODE":"US","MEAN_MOTION":"15.08844911","DECAY_DATE":null,"REF_FRAME":"TEME","LAUNCH_DATE":"2022-02-21","ARG_OF_PERICENTER":"57.8019","TLE_LINE2":"2 51734  53.2173 105.8493 0002078  57.8019 253.9970 15.08844911  1300","MEAN_MOTION_DOT":"-0.00021064","INCLINATION":"53.2173","MEAN_ELEMENT_THEORY":"SGP4","CENTER_NAME":"EARTH","OBJECT_ID":"2022-016W","EPOCH":"2022-08-01T22:00:00.999936","OBJECT_NAME":"STARLINK-3450","GP_ID":"209391716","SITE":"AFETR","ELEMENT_SET_NO":"999","MEAN_MOTION_DDOT":"0.0000000000000","REV_AT_EPOCH":"130","PERIAPSIS":"538.293","ECCENTRICITY":"0.00020780","NORAD_CAT_ID":"51734","BSTAR":"-0.00130900000000","RCS_SIZE":"LARGE","TLE_LINE1":"1 51734U 22016W   22213.91667824 -.00021064  00000-0 -13090-2 0  9994","FILE":"3527139","SEMIMAJOR_AXIS":"6917.865","APOAPSIS":"541.168"}];
